{
  "type": "FeatureCollection",
  "features": [
    {
      "type": "Feature",
      "geometry": { "type": "Point", "coordinates": [-76.1576747, 42.6085092] },
      "properties": {
        "id": "yaman-park",
        "name": "Yaman Park",
        "description": "Public boat launch on the Tioughnioga River in Cortland.",
        "region": "NY",
        "water_body_name": "Tioughnioga River",
        "water_body_type": "river",
        "access_type": "public-boat-launch",
        "parking_notes": "Best water level reported between 3.5 ft and 5 ft.",
        "tags": [],
        "nearest_gauge_site_no": "01509000",
        "source_url": "https://www.google.com/maps/search/42.6085092,-76.1576747",
        "photos": [],
        "tracks": []
      }
    },
    {
      "type": "Feature",
      "geometry": { "type": "Point", "coordinates": [-76.5033635, 42.4616703] },
      "properties": {
        "id": "stewart-park",
        "name": "Stewart Park",
        "description": "Public boat launch at the south end of Cayuga Lake, right next to the fairgrounds. Wide-open water with room to spread out, but can get choppy when it's windy.",
        "region": "NY",
        "water_body_name": "Cayuga Lake",
        "water_body_type": "lake",
        "access_type": "public-boat-launch",
        "parking_notes": "Large free lot, rarely full.",
        "tags": ["family-friendly", "wide-open-water"],
        "nearest_gauge_site_no": "",
        "source_url": "https://www.google.com/maps/search/42.4616703,-76.5033635",
        "photos": [],
        "tracks": []
      }
    },
    {
      "type": "Feature",
      "geometry": { "type": "Point", "coordinates": [-76.5493868, 42.5372942] },
      "properties": {
        "id": "myers-park",
        "name": "Myers Park",
        "description": "Paddling access point on the east shore of Cayuga Lake in the Town of Lansing.",
        "region": "NY",
        "water_body_name": "Cayuga Lake",
        "water_body_type": "lake",
        "access_type": "beach",
        "parking_notes": "Small lot, fills up on summer weekends.",
        "tags": ["scenic"],
        "nearest_gauge_site_no": "",
        "source_url": "https://www.google.com/maps/search/42.5372942,-76.5493868",
        "photos": [],
        "tracks": [
          {
            "id": "myers-park-shoreline-loop",
            "name": "Shoreline loop (sample route)",
            "distance_mi": 0.8,
            "gpx": "tracks/myers-park-shoreline-loop.gpx",
            "description": "Illustrative sample route for testing the Routes layer -- not a verified real paddling route. Replace with an actual GPS track."
          }
        ]
      }
    }
  ]
}
