<?xml version="1.0" encoding="UTF-8"?>
<gpx version="1.1" creator="mikkowus.github.io" xmlns="http://www.topografix.com/GPX/1/1">
  <trk>
    <name>Yaman Park - Inlet loop</name>
    <trkseg>
      <trkpt lat="42.4440" lon="-76.5019"></trkpt>
      <trkpt lat="42.4480" lon="-76.5032"></trkpt>
      <trkpt lat="42.4520" lon="-76.5048"></trkpt>
      <trkpt lat="42.4560" lon="-76.5061"></trkpt>
      <trkpt lat="42.4600" lon="-76.5070"></trkpt>
      <trkpt lat="42.4630" lon="-76.5078"></trkpt>
      <trkpt lat="42.4600" lon="-76.5070"></trkpt>
      <trkpt lat="42.4560" lon="-76.5061"></trkpt>
      <trkpt lat="42.4520" lon="-76.5048"></trkpt>
      <trkpt lat="42.4480" lon="-76.5032"></trkpt>
      <trkpt lat="42.4440" lon="-76.5019"></trkpt>
    </trkseg>
  </trk>
</gpx>
