<?xml version="1.0" encoding="UTF-8"?>
<gpx version="1.1" creator="mikkowus.github.io" xmlns="http://www.topografix.com/GPX/1/1">
  <trk>
    <name>Myers Park - Shoreline loop (sample route)</name>
    <trkseg>
      <trkpt lat="42.5373" lon="-76.5494"></trkpt>
      <trkpt lat="42.5382" lon="-76.5498"></trkpt>
      <trkpt lat="42.5391" lon="-76.5501"></trkpt>
      <trkpt lat="42.5400" lon="-76.5504"></trkpt>
      <trkpt lat="42.5391" lon="-76.5501"></trkpt>
      <trkpt lat="42.5382" lon="-76.5498"></trkpt>
      <trkpt lat="42.5373" lon="-76.5494"></trkpt>
    </trkseg>
  </trk>
</gpx>
